GSAT0220 (GALILEO 24)   
1 43567U 18060D   25048.62026472 -.00000094  00000+0  00000+0 0  9990
2 43567  57.2912 354.8609 0005474 302.2440  57.6995  1.70475724 40915
BEIDOU-3 M13            
1 43622U 18072A   25049.73982047 -.00000023  00000+0  00000+0 0  9999
2 43622  56.1984  78.6664 0008578 298.3440  61.6284  1.86231235 43653
BEIDOU-3 M14            
1 43623U 18072B   25050.14225223 -.00000021  00000+0  00000+0 0  9991
2 43623  56.2006  78.6465 0005947 318.0149  41.9982  1.86231228 43650
GPS BIII-1              
1 43873U 18109A   25050.39439042 -.00000016  00000+0  00000+0 0  9996
2 43873  55.4041 111.2554 0033113 196.3452 166.8153  2.00565198 45393
METEOR-M2 2             
1 44387U 19038A   25050.54824385  .00000315  00000+0  15664-3 0  9991
2 44387  98.8625  27.2204 0001240  22.7397 337.3836 14.24142742292591
GPS BIII-2              
1 44506U 19056A   25049.26630442 -.00000097  00000+0  00000+0 0  9992
2 44506  55.8117 350.3454 0048751 194.3612 337.0233  2.00560488 40360
BEIDOU-3 M24            
1 44542U 19061A   25049.98281493  .00000064  00000+0  00000+0 0  9998
2 44542  54.4215 199.0249 0008363  17.3006 342.6913  1.86229107 36792
BEIDOU-3 M23            
1 44543U 19061B   25049.65047368  .00000063  00000+0  00000+0 0  9993
2 44543  54.4199 199.0046 0005034  14.5594  35.2747  1.86229416 36795
BEIDOU-3 M22            
1 44793U 19078A   25048.21567784 -.00000084  00000+0  00000+0 0  9992
2 44793  54.3667 316.8346 0007043  23.8195 336.2588  1.86232110 35617
BEIDOU-3 M21            
1 44794U 19078B   25047.27246528 -.00000086  00000+0  00000+0 0  9990
2 44794  54.3409 316.8384 0005123  16.4998 343.5628  1.86227822 35609
ELEKTRO-L 3             
1 44903U 19095A   25050.57614193 -.00000085  00000+0  00000+0 0  9994
2 44903   0.0167  95.6344 0001780 228.6957 108.7914  1.00270955 18864
GPS BIII-3              
1 45854U 20041A   25049.91001642 -.00000043  00000+0  00000+0 0  9992
2 45854  56.3268  47.7568 0051030 199.6007  18.0855  2.00568740 34349
COSMOS 2547             
1 46805U 20075A   25050.54206699  .00000082  00000+0  00000+0 0  9998
2 46805  64.5988 208.5900 0006064 231.1184 128.8097  2.13103066 33626
GPS BIII-4              
1 46826U 20078A   25040.47497619  .00000063  00000+0  00000+0 0  9998
2 46826  54.0992 230.7677 0053664 198.3978  18.3410  2.00559149 31622
GSAT0223 (GALILEO 27)   
1 49809U 21116A   25050.01280829 -.00000090  00000+0  00000+0 0  9991
2 49809  57.2809 354.7163 0002797 271.3950 313.7663  1.70475855 19948
GSAT0224 (GALILEO 28)   
1 49810U 21116B   25047.44914051 -.00000098  00000+0  00000+0 0  9995
2 49810  57.2822 354.7833 0002530 281.5913 282.7299  1.70475796 19928
GOES 18                 
1 51850U 22021A   25050.63057628  .00000108  00000+0  00000+0 0  9992
2 51850   0.0003 237.8405 0000587 171.3352 190.6263  1.00272398  1757
COSMOS 2557 (706K)      
1 52984U 22075A   25050.23964760 -.00000073  00000+0  00000+0 0  9992
2 52984  64.5642 331.4536 0012666 285.0233  74.8691  2.13101867 20428
METEOR-M2 3             
1 57166U 23091A   25050.59759871  .00000065  00000+0  47250-4 0  9995
2 57166  98.6782 108.6159 0004908 125.1251 235.0389 14.23977658 85831
COSMOS 2569 (703K)      
1 57517U 23114A   25050.38823388  .00000005  00000+0  00000+0 0  9994
2 57517  65.0332  88.9356 0012528 291.4090  68.5251  2.13104198 11972
METEOR-M2 4             
1 59051U 24039A   25050.62351770  .00000123  00000+0  74752-4 0  9995
2 59051  98.6351  12.8909 0007967 122.1290 238.0662 14.22336588 50665
GSAT0225 (GALILEO 29)   
1 59598U 24079A   25049.18725553 -.00000004  00000+0  00000+0 0  9997
2 59598  54.8266 114.6215 0002869 229.3768 313.2256  1.70475263  5069
GSAT0227 (GALILEO 30)   
1 59600U 24079C   25050.24632357 -.00000002  00000+0  00000+0 0  9997
2 59600  54.8224 114.5917 0001451 138.3311 221.7473  1.70475098  5132
GSAT0232 (GALILEO 32)   
1 61182U 24167A   25049.99221773  .00000067  00000+0  00000+0 0  9999
2 61182  55.3489 234.5689 0001929 175.9459 223.4573  1.70474026  2641
GSAT0226 (GALILEO 31)   
1 61183U 24167B   25048.30302377  .00000056  00000+0  00000+0 0  9992
2 61183  55.3481 234.6210 0001993 108.5169  86.7363  1.70474159  2583
